NORAD_CAT_ID,OBJECT_NAME,OBJECT_TYPE,EPOCH,MEAN_MOTION,ECCENTRICITY,INCLINATION,RA_OF_ASC_NODE,ARG_OF_PERICENTER,MEAN_ANOMALY,BSTAR,MEAN_MOTION_DOT,MEAN_MOTION_DDOT,TLE_LINE0,TLE_LINE1,TLE_LINE2,SEMIMAJOR_AXIS,PERIOD,APOGEE,PERIGEE,DECAYED
52119.0,STARLINK-3558,PAYLOAD,2023-09-08 03:14:49,15.08837259,0.0001619,53.2166,220.2236,96.7296,263.3881,-4.1724e-05,-9.52e-06,0.0,0 STARLINK-3558,1 52119U 22029AH  23251.13529965 -.00000952  00000-0 -41724-4 0  9996,2 52119  53.2166 220.2236 0001619  96.7296 263.3881 15.08837259 82881,6917.889,95.438,540.874,538.634,0.0
52119.0,STARLINK-3558,PAYLOAD,2023-09-08 04:50:13,15.08844234,0.0001345,53.217,219.9292,91.6387,268.4759,-0.00015969,-2.829e-05,0.0,0 STARLINK-3558,1 52119U 22029AH  23251.20153942 -.00002829  00000-0 -15969-3 0  9998,2 52119  53.2170 219.9292 0001345  91.6387 268.4759 15.08844234 82885,6917.867,95.437,540.663,538.802,0.0
52119.0,STARLINK-3558,PAYLOAD,2023-09-08 22:19:27,15.0886068,0.0001482,53.2166,216.6561,97.8184,262.2977,-0.00034216,-5.732e-05,0.0,0 STARLINK-3558,1 52119U 22029AH  23251.93017860 -.00005732  00000-0 -34216-3 0  9998,2 52119  53.2166 216.6561 0001482  97.8184 262.2977 15.08860680 82997,6917.817,95.436,540.707,538.657,0.0
52119.0,STARLINK-3558,PAYLOAD,2023-09-09 01:30:14,15.08790265,0.0002105,53.2163,216.062,94.2479,265.8754,0.00063589,9.833e-05,0.0,0 STARLINK-3558,1 52119U 22029AH  23252.06266899  .00009833  00000-0  63589-3 0  9990,2 52119  53.2163 216.0620 0002105  94.2479 265.8754 15.08790265 83023,6918.032,95.441,541.354,538.441,0.0
52119.0,STARLINK-3558,PAYLOAD,2023-09-09 06:16:22,15.08845129,0.0001511,53.2169,215.1713,91.7845,268.3321,-2.4692e-06,-3.27e-06,0.0,0 STARLINK-3558,1 52119U 22029AH  23252.26137544 -.00000327  00000-0 -24692-5 0  9991,2 52119  53.2169 215.1713 0001511  91.7845 268.3321 15.08845129 83052,6917.865,95.437,540.775,538.684,0.0
52119.0,STARLINK-3558,PAYLOAD,2023-09-09 14:13:19,15.08833782,0.0001568,53.2172,213.6852,91.6189,268.4983,6.7789e-05,7.91e-06,0.0,0 STARLINK-3558,1 52119U 22029AH  23252.59258147  .00000791  00000-0  67789-4 0  9996,2 52119  53.2172 213.6852 0001568  91.6189 268.4983 15.08833782 83108,6917.899,95.438,540.849,538.68,0.0
52119.0,STARLINK-3558,PAYLOAD,2023-09-10 06:07:10,15.08838623,0.0001564,53.2173,210.7115,98.4544,261.6626,0.00013386,1.843e-05,0.0,0 STARLINK-3558,1 52119U 22029AH  23253.25497877  .00001843  00000-0  13386-3 0  9997,2 52119  53.2173 210.7115 0001564  98.4544 261.6626 15.08838623 83192,6917.885,95.438,540.832,538.668,0.0
52119.0,STARLINK-3558,PAYLOAD,2023-09-11 02:47:11,15.08831859,0.0001178,53.2174,206.8467,81.0828,279.0298,1.8829e-05,1.2e-07,0.0,0 STARLINK-3558,1 52119U 22029AH  23254.11611041  .00000012  00000-0  18829-4 0  9999,2 52119  53.2174 206.8467 0001178  81.0828 279.0298 15.08831859 83331,6917.905,95.438,540.585,538.955,0.0
52119.0,STARLINK-3558,PAYLOAD,2023-09-11 13:54:53,15.08837745,0.0001435,53.2168,204.7643,92.2724,267.8433,4.4126e-05,4.14e-06,0.0,0 STARLINK-3558,1 52119U 22029AH  23254.57978716  .00000414  00000-0  44126-4 0  9999,2 52119  53.2168 204.7643 0001435  92.2724 267.8433 15.08837745 83394,6917.887,95.438,540.745,538.76,0.0
52119.0,STARLINK-3558,PAYLOAD,2023-09-12 02:37:58,15.08848533,0.0001397,53.217,202.3829,89.9505,270.1647,3.1344e-05,2.11e-06,0.0,0 STARLINK-3558,1 52119U 22029AH  23255.10970127  .00000211  00000-0  31344-4 0  9990,2 52119  53.2170 202.3829 0001397  89.9505 270.1647 15.08848533 83485,6917.854,95.437,540.686,538.753,0.0
52119.0,STARLINK-3558,PAYLOAD,2023-09-12 05:48:44,15.08845608,0.0001593,53.2174,201.7884,103.6645,256.4525,0.00012788,1.748e-05,0.0,0 STARLINK-3558,1 52119U 22029AH  23255.24217981  .00001748  00000-0  12788-3 0  9993,2 52119  53.2174 201.7884 0001593 103.6645 256.4525 15.08845608 83493,6917.863,95.437,540.83,538.626,0.0
52119.0,STARLINK-3558,PAYLOAD,2023-09-13 02:28:45,15.08839739,0.0001431,53.2172,197.9211,97.37,262.7455,8.725e-05,1.101e-05,0.0,0 STARLINK-3558,1 52119U 22029AH  23256.10330550  .00001101  00000-0  87250-4 0  9997,2 52119  53.2172 197.9211 0001431  97.3700 262.7455 15.08839739 83639,6917.881,95.438,540.736,538.756,0.0
52119.0,STARLINK-3558,PAYLOAD,2023-09-13 19:57:59,15.08844045,0.0001436,53.2166,194.6514,97.2397,262.8759,4.9645e-05,5.02e-06,0.0,0 STARLINK-3558,1 52119U 22029AH  23256.83194321  .00000502  00000-0  49645-4 0  9991,2 52119  53.2166 194.6514 0001436  97.2397 262.8759 15.08844045 83733,6917.868,95.437,540.726,538.74,0.0
52119.0,STARLINK-3558,PAYLOAD,2023-09-14 05:30:18,15.08849454,0.0001538,53.2172,192.8677,98.0325,262.0841,-5.2548e-06,-3.72e-06,0.0,0 STARLINK-3558,1 52119U 22029AH  23257.22938091 -.00000372  00000-0 -52548-5 0  9999,2 52119  53.2172 192.8677 0001538  98.0325 262.0841 15.08849454 83804,6917.851,95.437,540.78,538.653,0.0
52119.0,STARLINK-3558,PAYLOAD,2023-09-15 02:10:19,15.08838536,0.0001471,53.2178,189.0025,100.6079,259.5078,5.3384e-06,-2.03e-06,0.0,0 STARLINK-3558,1 52119U 22029AH  23258.09050835 -.00000203  00000-0  53384-5 0  9997,2 52119  53.2178 189.0025 0001471 100.6079 259.5078 15.08838536 83933,6917.885,95.438,540.767,538.732,0.0
52119.0,STARLINK-3558,PAYLOAD,2023-09-15 05:21:06,15.0883938,0.0001497,53.2178,188.4069,102.6548,257.4611,2.5161e-05,1.12e-06,0.0,0 STARLINK-3558,1 52119U 22029AH  23258.22298772  .00000112  00000-0  25161-4 0  9995,2 52119  53.2178 188.4069 0001497 102.6548 257.4611 15.08839380 83944,6917.882,95.438,540.783,538.712,0.0
52119.0,STARLINK-3558,PAYLOAD,2023-09-16 05:11:52,15.08848858,0.0001292,53.2174,183.9484,96.3222,263.7918,0.00012303,1.671e-05,0.0,0 STARLINK-3558,1 52119U 22029AH  23259.21657965  .00001671  00000-0  12303-3 0  9992,2 52119  53.2174 183.9484 0001292  96.3222 263.7918 15.08848858 84101,6917.853,95.437,540.612,538.825,0.0
52119.0,STARLINK-3558,PAYLOAD,2023-09-17 01:51:53,15.08840639,0.0001262,53.2179,180.0802,104.36,255.7532,8.4341e-05,1.055e-05,0.0,0 STARLINK-3558,1 52119U 22029AH  23260.07770764  .00001055  00000-0  84341-4 0  9999,2 52119  53.2179 180.0802 0001262 104.3600 255.7532 15.08840639 84231,6917.878,95.438,540.616,538.87,0.0
52119.0,STARLINK-3558,PAYLOAD,2023-09-17 05:02:40,15.08843592,0.0001219,53.2178,179.4858,101.3067,258.8062,0.00011366,1.522e-05,0.0,0 STARLINK-3558,1 52119U 22029AH  23260.21018595  .00001522  00000-0  11366-3 0  9997,2 52119  53.2178 179.4858 0001219 101.3067 258.8062 15.08843592 84243,6917.869,95.437,540.578,538.891,0.0
52119.0,STARLINK-3558,PAYLOAD,2023-09-18 03:18:03,15.08850374,0.0001169,53.2176,175.3244,95.9861,264.1265,6.3647e-05,7.26e-06,0.0,0 STARLINK-3558,1 52119U 22029AH  23261.13754228  .00000726  00000-0  63647-4 0  9994,2 52119  53.2176 175.3244 0001169  95.9861 264.1265 15.08850374 84396,6917.849,95.437,540.522,538.905,0.0
52119.0,STARLINK-3558,PAYLOAD,2023-09-19 01:33:27,15.08848317,0.0001409,53.2182,171.1614,103.9538,256.1611,0.00010754,1.424e-05,0.0,0 STARLINK-3558,1 52119U 22029AH  23262.06490329  .00001424  00000-0  10754-3 0  9992,2 52119  53.2182 171.1614 0001409 103.9538 256.1611 15.08848317 84532,6917.855,95.437,540.695,538.745,0.0
52119.0,STARLINK-3558,PAYLOAD,2023-09-19 04:44:13,15.08854249,0.0001235,53.2177,170.5652,94.9701,265.1432,0.00015915,2.247e-05,0.0,0 STARLINK-3558,1 52119U 22029AH  23262.19737803  .00002247  00000-0  15915-3 0  9995,2 52119  53.2177 170.5652 0001235  94.9701 265.1432 15.08854249 84553,6917.837,95.437,540.556,538.847,0.0
52119.0,STARLINK-3558,PAYLOAD,2023-09-20 01:24:14,15.08852881,0.0001184,53.2173,166.7019,87.5704,272.5424,9.1744e-05,1.173e-05,0.0,0 STARLINK-3558,1 52119U 22029AH  23263.05849681  .00001173  00000-0  91744-4 0  9991,2 52119  53.2173 166.7019 0001184  87.5704 272.5424 15.08852881 84684,6917.841,95.437,540.525,538.887,0.0
52119.0,STARLINK-3558,PAYLOAD,2023-09-20 02:59:37,15.08851916,0.0001273,53.2164,166.3993,95.0226,265.0912,0.00015268,2.144e-05,0.0,0 STARLINK-3558,1 52119U 22029AH  23263.12473749  .00002144  00000-0  15268-3 0  9992,2 52119  53.2164 166.3993 0001273  95.0226 265.0912 15.08851916 84680,6917.844,95.437,540.59,538.828,0.0
52119.0,STARLINK-3558,PAYLOAD,2023-09-20 22:04:16,15.08825521,0.0001654,53.2169,162.8283,101.5129,258.6049,-0.00028121,-4.759e-05,0.0,0 STARLINK-3558,1 52119U 22029AH  23263.91963493 -.00004759  00000-0 -28121-3 0  9997,2 52119  53.2169 162.8283 0001654 101.5129 258.6049 15.08825521 84802,6917.925,95.438,540.934,538.645,0.0
52119.0,STARLINK-3558,PAYLOAD,2023-09-20 23:39:40,15.08827887,0.000162,53.2186,162.5348,78.2302,281.8872,-0.0001377,-2.478e-05,0.0,0 STARLINK-3558,1 52119U 22029AH  23263.98588574 -.00002478  00000-0 -13770-3 0  9997,2 52119  53.2186 162.5348 0001620  78.2302 281.8872 15.08827887 84827,6917.917,95.438,540.903,538.662,0.0
52119.0,STARLINK-3558,PAYLOAD,2023-09-21 02:50:26,15.08828182,0.0001598,53.2187,161.9403,82.4687,277.6486,-0.00013525,-2.439e-05,0.0,0 STARLINK-3558,1 52119U 22029AH  23264.11836631 -.00002439  00000-0 -13525-3 0  9998,2 52119  53.2187 161.9403 0001598  82.4687 277.6486 15.08828182 84834,6917.917,95.438,540.887,538.676,0.0
52119.0,STARLINK-3558,PAYLOAD,2023-09-21 21:55:03,15.08843574,0.0001604,53.2176,158.3787,64.4904,295.6254,7.9569e-06,-1.61e-06,0.0,0 STARLINK-3558,1 52119U 22029AH  23264.91323640 -.00000161  00000-0  79569-5 0  9998,2 52119  53.2176 158.3787 0001604  64.4904 295.6254 15.08843574 84955,6917.869,95.437,540.844,538.625,0.0
52119.0,STARLINK-3558,PAYLOAD,2023-09-21 23:30:26,15.08847972,0.0001439,53.2177,158.0749,89.583,270.5327,3.9835e-05,3.46e-06,0.0,0 STARLINK-3558,1 52119U 22029AH  23264.97946920  .00000346  00000-0  39835-4 0  9991,2 52119  53.2177 158.0749 0001439  89.5830 270.5327 15.08847972 84974,6917.856,95.437,540.717,538.726,0.0
52119.0,STARLINK-3558,PAYLOAD,2023-09-22 02:41:12,15.08849285,0.0001447,53.2179,157.4791,89.6637,270.4521,5.3172e-05,5.59e-06,0.0,0 STARLINK-3558,1 52119U 22029AH  23265.11194910  .00000559  00000-0  53172-4 0  9998,2 52119  53.2179 157.4791 0001447  89.6637 270.4521 15.08849285 84986,6917.852,95.437,540.718,538.716,0.0
